ISS (ZARYA)
1 25544U 98067A   26212.89378683  .00008757  00000+0  16519-3 0  9996
2 25544  51.6315  78.8506 0007211 358.5886   1.5081 15.49290909578688
SAUDISAT 1C (SO-50)
1 27607U 02058C   26212.79423321  .00001247  00000+0  16373-3 0  9997
2 27607  64.5532 350.9620 0074003 254.2484 105.0452 14.83133947271074
RS-44 & BREEZE-KM R/B
1 44909U 19096E   26212.80236692  .00000025  00000+0  52247-4 0  9990
2 44909  82.5245 310.0631 0218079  40.3157 321.3884 12.79748764308055
RADFXSAT (FOX-1B)
1 43017U 17073E   26212.58546625  .00008870  00000+0  38149-3 0  9997
2 43017  97.4637  78.8956 0149088 174.6387 185.6485 15.13280207472102
OSCAR 7 (AO-7)
1 07530U 74089B   26212.77506987 -.00000038  00000+0  52840-4 0  9999
2 07530 101.9911 226.4869 0012552  47.5003 127.4215 12.53698875366102
DIWATA-2B
1 43678U 18084H   26212.84802458  .00001982  00000+0  16187-3 0  9996
2 43678  98.1209  51.0172 0011659  30.9983 329.1925 15.00618660422911
FUNCUBE-1 (AO-73)
1 39444U 13066AE  26212.86019390  .00008378  00000+0  51039-3 0  9995
2 39444  97.8310 185.2633 0037490  53.7990 306.6695 15.10055836686401
PHASE 3B (AO-10)
1 14129U 83058B   26209.15539846 -.00000001  00000+0  00000+0 0  9991
2 14129  25.9480 212.8256 5997235 126.9194 304.3387  2.05870810296337
FOX-1A (AO-85)
1 40967U 15058D   26212.88712719  .00004045  00000+0  35686-3 0  9994
2 40967  64.7756 140.0468 0133695  39.5415 321.5356 14.91206440120234
MARINA
1 69920U 17073E   26212.44000000  .00008870  00000+0  38149-3 0  9995
2 69920  97.4637  78.8956 0149088 174.6387 185.6485 15.13280207472103
